{
  "norad_id": 63595,
  "name": "STARLINK-33831",
  "history": [
    {
      "epoch": "2026-03-28T19:05:44.457216Z",
      "apogee_km": 483.66837721933007,
      "perigee_km": 482.280374388004,
      "latitude_deg": 1.801948589533641e-05,
      "longitude_deg": 100.9794131165299,
      "height_km": 482.7237448396413,
      "semi_major_axis_km": 6861.111375803666,
      "eccentricity": 0.00010115,
      "inclination_deg": 42.9976,
      "raan_deg": 213.6256,
      "arg_perigee_deg": 272.2075,
      "mean_anomaly_deg": 87.8661,
      "mean_motion_rev_day": 15.27604954
    }
  ]
}