{"fetched_at":"2026-03-30T06:02:59Z","count":15439,"tles":[{"name":"STARLINK-33831","line1":"1 63595U 25076AC  26087.79565344  .00024821  00000+0  90776-3 0  9992","line2":"2 63595  42.9976 213.6256 0001011 272.2075  87.8661 15.27604954 54750","category":"Starlink"}]}